{
    "links": {
        "self": "http://www.neowsapp.com/rest/v1/neo/3599385?api_key=iIulBulltgU6a56xZRHN4H3l9WmuAYTsLGpBGhQ2"
    },
    "id": "3599385",
    "neo_reference_id": "3599385",
    "name": "(2012 CN46)",
    "designation": "2012 CN46",
    "nasa_jpl_url": "http://ssd.jpl.nasa.gov/sbdb.cgi?sstr=3599385",
    "absolute_magnitude_h": 24.7,
    "estimated_diameter": {
        "kilometers": {
            "estimated_diameter_min": 0.0305179233,
            "estimated_diameter_max": 0.0682401509
        },
        "meters": {
            "estimated_diameter_min": 30.5179232594,
            "estimated_diameter_max": 68.2401509401
        },
        "miles": {
            "estimated_diameter_min": 0.0189629525,
            "estimated_diameter_max": 0.0424024508
        },
        "feet": {
            "estimated_diameter_min": 100.1244233463,
            "estimated_diameter_max": 223.8850168104
        }
    },
    "is_potentially_hazardous_asteroid": false,
    "close_approach_data": [
        {
            "close_approach_date": "2012-02-10",
            "close_approach_date_full": "2012-Feb-10 13:01",
            "epoch_date_close_approach": 1328878860000,
            "relative_velocity": {
                "kilometers_per_second": "1.1425548229",
                "kilometers_per_hour": "4113.1973625952",
                "miles_per_hour": "2555.7808834414"
            },
            "miss_distance": {
                "astronomical": "0.1774507778",
                "lunar": "69.0283525642",
                "kilometers": "26546258.388723286",
                "miles": "16495080.0757259068"
            },
            "orbiting_body": "Earth"
        },
        {
            "close_approach_date": "2015-03-31",
            "close_approach_date_full": "2015-Mar-31 15:56",
            "epoch_date_close_approach": 1427817360000,
            "relative_velocity": {
                "kilometers_per_second": "7.443717264",
                "kilometers_per_hour": "26797.3821505116",
                "miles_per_hour": "16650.851147911"
            },
            "miss_distance": {
                "astronomical": "0.0544852076",
                "lunar": "21.1947457564",
                "kilometers": "8150871.003467812",
                "miles": "5064716.3875353256"
            },
            "orbiting_body": "Mars"
        }
    ],
    "orbital_data": {
        "orbit_id": "7",
        "orbit_determination_date": "2017-04-06 08:50:58",
        "first_observation_date": "2012-02-12",
        "last_observation_date": "2012-02-28",
        "data_arc_in_days": 16,
        "observations_used": 19,
        "orbit_uncertainty": "7",
        "minimum_orbit_intersection": ".171766",
        "jupiter_tisserand_invariant": "4.617",
        "epoch_osculation": "2459000.5",
        "eccentricity": ".2018281426272969",
        "semi_major_axis": "1.452025181668614",
        "inclination": "2.25830069287366",
        "ascending_node_longitude": "122.7980085754059",
        "orbital_period": "639.0865080276628",
        "perihelion_distance": "1.158965636204374",
        "perihelion_argument": "23.74397764411277",
        "aphelion_distance": "1.745084727132853",
        "perihelion_time": "2459171.940663837187",
        "mean_anomaly": "263.4267846275425",
        "mean_motion": ".5633040214086595",
        "equinox": "J2000",
        "orbit_class": {
            "orbit_class_type": "AMO",
            "orbit_class_description": "Near-Earth asteroid orbits similar to that of 1221 Amor",
            "orbit_class_range": "1.017 AU < q (perihelion) < 1.3 AU"
        }
    },
    "is_sentry_object": false
}